storeSlug,name,description,storeAddress,storeZip,longDescription,latitude,longitude,storeURL,image,mapImage,phone
kwikshop-1,Kwik Shop - N 14th St,On the corner of 14th and Adams,"2940 N 14th St, Lincoln, NE",68521,Kiwk Shop on the corner of 14th and Adams.,40.84267988,-96.70099928,https://www.kwikshop.com/,,https://firebasestorage.googleapis.com/v0/b/promotion-3abec.appspot.com/o/media%2Fstores%2F_resized%2Fkwikshopimage_70x70.png?alt=media,14024351083
kwikshop-2,Kwik Shop - N 1th St,On 1st Street,"2330 N 1st St, Lincoln, NE",68521,Kwik Shop on 1st Street,40.83669113,-96.71991919,https://www.kwikshop.com/,,https://firebasestorage.googleapis.com/v0/b/promotion-3abec.appspot.com/o/media%2Fstores%2F_resized%2Fkwikshopimage_70x70.png?alt=media,14024752801
kwikshop-3,Kwik Shop - Cornhusker Hwy,On Cornhusker Hwy.,"2302 Cornhusker Hwy, Lincoln, NE",68521,Kwik Shop on Cornhusker Hwy.,40.84313186,-96.68769707,https://www.kwikshop.com/,,https://firebasestorage.googleapis.com/v0/b/promotion-3abec.appspot.com/o/media%2Fstores%2F_resized%2Fkwikshopimage_70x70.png?alt=media,14024776020
kwikshop-4,Kwik Shop - Cornhusker Hwy,On Cornhusker Hwy.,"4400 Cornhusker Hwy, Lincoln, NE",68504,Kwik Shop on Cornhusker Hwy.,40.84947324,-96.65846441,https://www.kwikshop.com/,,https://firebasestorage.googleapis.com/v0/b/promotion-3abec.appspot.com/o/media%2Fstores%2F_resized%2Fkwikshopimage_70x70.png?alt=media,14024646692
kwikshop-5,Kwik Shop - Fremont St,On Fremont Street,"5900 Fremont St, Lincoln, NE",68507,Kwik Shop on Fremont Street,40.84894276,-96.63950782,https://www.kwikshop.com/,,https://firebasestorage.googleapis.com/v0/b/promotion-3abec.appspot.com/o/media%2Fstores%2F_resized%2Fkwikshopimage_70x70.png?alt=media,14024671661
kwikshop-6,Kwik Shop - N 48th St,On N 48th Street,"2811 N 48th St, Lincoln, NE",68504,Kwik Shop on N 48th Street,40.84047814,-96.65393704,https://www.kwikshop.com/,,https://firebasestorage.googleapis.com/v0/b/promotion-3abec.appspot.com/o/media%2Fstores%2F_resized%2Fkwikshopimage_70x70.png?alt=media,14024643739
kwikshop-7,Kwik Shop - W St,On W Street,"2710 W St, Lincoln, NE",68503,Kwik Shop on W Street,40.82301272,-96.68196652,https://www.kwikshop.com/,,https://firebasestorage.googleapis.com/v0/b/promotion-3abec.appspot.com/o/media%2Fstores%2F_resized%2Fkwikshopimage_70x70.png?alt=media,14024351033
kwikshop-8,Kwik Shop -Holdgrede St,On Holdredge Street,"3301 Holdrege St, Lincoln, NE",68503,Kwik Shop on Holdredge Street,40.82777743,-96.67249766,https://www.kwikshop.com/,,https://firebasestorage.googleapis.com/v0/b/promotion-3abec.appspot.com/o/media%2Fstores%2F_resized%2Fkwikshopimage_70x70.png?alt=media,14024669410
kwikshop-9,Kwik Shop - Holdgrege St,On Holdredge Street,"5600 Holdrege St, Lincoln, NE",68505,Kwik Shop on Holdredge Street,40.8282797,-96.64378929,https://www.kwikshop.com/,,https://firebasestorage.googleapis.com/v0/b/promotion-3abec.appspot.com/o/media%2Fstores%2F_resized%2Fkwikshopimage_70x70.png?alt=media,14024664241
kwikshop-10,Kwik Shop - Cotner St,On N Cotner Blvd.,"1441 N Cotner Blvd, Lincoln, NE",68505,Kwik Shop on N Cotner Blvd.,40.8276848,-96.63095662,https://www.kwikshop.com/,,https://firebasestorage.googleapis.com/v0/b/promotion-3abec.appspot.com/o/media%2Fstores%2F_resized%2Fkwikshopimage_70x70.png?alt=media,14024668010
kwikshop-12,Kwik Shop - A St,On A Street,"3939 A St, Lincoln, NE",68510,Kwik Shop on A Street,40.79873668,-96.66363287,https://www.kwikshop.com/,,https://firebasestorage.googleapis.com/v0/b/promotion-3abec.appspot.com/o/media%2Fstores%2F_resized%2Fkwikshopimage_70x70.png?alt=media,14024888526
kwikshop-13,Kwik Shop - S 56th St,On S 56th Street,"2040 S 56th St, Lincoln, NE",68506,Kwik Shop on S 56th Street,40.79182368,-96.643787,https://www.kwikshop.com/,,https://firebasestorage.googleapis.com/v0/b/promotion-3abec.appspot.com/o/media%2Fstores%2F_resized%2Fkwikshopimage_70x70.png?alt=media,14024897834
kwikshop-14,Kwik Shop - Calvert St,On Calvert Street,"4750 Calvert St, Lincoln, NE",68506,Kwik Shop on Calvert Street,40.77736521,-96.6542429,https://www.kwikshop.com/,,https://firebasestorage.googleapis.com/v0/b/promotion-3abec.appspot.com/o/media%2Fstores%2F_resized%2Fkwikshopimage_70x70.png?alt=media,14024882781
u-stop-19,U-Stop - S 48th & Hwy 2,,"5240 S 48th St A, Lincoln, NE",68516,,40.76069501,-96.65342622,http://www.u-stop.com/,,https://firebasestorage.googleapis.com/v0/b/promotion-3abec.appspot.com/o/media%2Fstores%2F_resized%2Fu-stopimage_70x70.png?alt=media,14024343400
u-stop-20,U-Stop - O & Cherry Hill St,,"8231 O St, Lincoln, NE",68510,,40.81314907,-96.6077844,http://www.u-stop.com/,,https://firebasestorage.googleapis.com/v0/b/promotion-3abec.appspot.com/o/media%2Fstores%2F_resized%2Fu-stopimage_70x70.png?alt=media,14024886167
u-stop-1,U-Stop - S 10th St,Right by the courthouse on 10th Street,"610 S 10th St, Lincoln, NE",68508,U-Stop on S 10th Street.,40.80773839,-96.70682685,http://www.u-stop.com/,,https://firebasestorage.googleapis.com/v0/b/promotion-3abec.appspot.com/o/media%2Fstores%2F_resized%2Fu-stopimage_70x70.png?alt=media,14024747346
u-stop-2,U-Stop - N 56th St,On N 56th Street,"8201 N 56th St, Lincoln, NE",68514,U-Stop on N 56th Street,40.89338378,-96.64436278,http://www.u-stop.com/,,https://firebasestorage.googleapis.com/v0/b/promotion-3abec.appspot.com/o/media%2Fstores%2F_resized%2Fu-stopimage_70x70.png?alt=media,14024830009
u-stop-3,U-Stop - Wildcat Dr,On Wildcat Drive,"6801 Wildcat Dr, Lincoln, NE",68504,U-Stop on Wildcat Drive,40.88007809,-96.68150779,http://www.u-stop.com/,,https://firebasestorage.googleapis.com/v0/b/promotion-3abec.appspot.com/o/media%2Fstores%2F_resized%2Fu-stopimage_70x70.png?alt=media,14024779137
u-stop-4,U-Stop - Fletcher Ave,On Fletcher Ave,"110 Fletcher Ave Suite 101, Lincoln, NE",68521,U-Stop on Fletcher Ave,40.86971055,-96.72352089,http://www.u-stop.com/,,https://firebasestorage.googleapis.com/v0/b/promotion-3abec.appspot.com/o/media%2Fstores%2F_resized%2Fu-stopimage_70x70.png?alt=media,14024779892
u-stop-5,U-Stop - Superior St,On Superior Street,"3280 Superior St, Lincoln, NE",68504,U-Stop on Superior Street,40.85745394,-96.67195848,http://www.u-stop.com/,,https://firebasestorage.googleapis.com/v0/b/promotion-3abec.appspot.com/o/media%2Fstores%2F_resized%2Fu-stopimage_70x70.png?alt=media,14024383371
u-stop-6,U-Stop - Cornhusker Hwy,On Cornhusker Hwy.,"3244 Cornhusker Hwy, Lincoln, NE",68504,U-Stop on Cornhusker Hwy,40.84329556,-96.67341757,http://www.u-stop.com/,,https://firebasestorage.googleapis.com/v0/b/promotion-3abec.appspot.com/o/media%2Fstores%2F_resized%2Fu-stopimage_70x70.png?alt=media,14024674344
u-stop-7,U-Stop - NW 12th St,On NW 12th Street,"2925 NW 12th St, Lincoln, NE",68521,U-Stop on NW 12th Street,40.84124437,-96.74032564,http://www.u-stop.com/,,https://firebasestorage.googleapis.com/v0/b/promotion-3abec.appspot.com/o/media%2Fstores%2F_resized%2Fu-stopimage_70x70.png?alt=media,14024751888
u-stop-8,U-Stop - W O St,On W O St,"110 W O St, Lincoln, NE",68528,U-Stop on W O Street.,40.81429899,-96.72066783,http://www.u-stop.com/,,https://firebasestorage.googleapis.com/v0/b/promotion-3abec.appspot.com/o/media%2Fstores%2F_resized%2Fu-stopimage_70x70.png?alt=media,14024387878
u-stop-9,U-Stop - N 17th St,On W O St,"240 N 17th St, Lincoln, NE",68508,U-Stop on NW 12th Street.,40.81549614,-96.69618781,http://www.u-stop.com/,,https://firebasestorage.googleapis.com/v0/b/promotion-3abec.appspot.com/o/media%2Fstores%2F_resized%2Fu-stopimage_70x70.png?alt=media,14024761610
u-stop-10,U-Stop - Northwoods Dr,On Northwoods Drive,"8350 Northwoods Dr, Lincoln, NE",68505,U-Stop on Northwoods Drive,40.82642952,-96.60670938,http://www.u-stop.com/,,https://firebasestorage.googleapis.com/v0/b/promotion-3abec.appspot.com/o/media%2Fstores%2F_resized%2Fu-stopimage_70x70.png?alt=media,14024891222
u-stop-11,U-Stop - K St,On K Street,"2140 K St Suite 100, Lincoln, NE",68510,U-Stop on K Street,40.80949429,-96.68994848,http://www.u-stop.com/,,https://firebasestorage.googleapis.com/v0/b/promotion-3abec.appspot.com/o/media%2Fstores%2F_resized%2Fu-stopimage_70x70.png?alt=media,14024770166
u-stop-12,U-Stop - S 27th St,On South 27th Street,"946 S 27th St, Lincoln, NE",68510,U-Stop on South 27th Street,40.80426284,-96.68185071,http://www.u-stop.com/,,https://firebasestorage.googleapis.com/v0/b/promotion-3abec.appspot.com/o/media%2Fstores%2F_resized%2Fu-stopimage_70x70.png?alt=media,14024778990
u-stop-13,U-Stop - South St,On South Street,"1301 South St, Lincoln, NE",68502,U-Stop on South Street,40.79153599,-96.702135,http://www.u-stop.com/,,https://firebasestorage.googleapis.com/v0/b/promotion-3abec.appspot.com/o/media%2Fstores%2F_resized%2Fu-stopimage_70x70.png?alt=media,14024350861
u-stop-14,U-Stop - Porter Ridge Rd,,"2700 Porter Ridge Rd, Lincoln, NE",68516,,40.73831293,-96.68186963,http://www.u-stop.com/,,https://firebasestorage.googleapis.com/v0/b/promotion-3abec.appspot.com/o/media%2Fstores%2F_resized%2Fu-stopimage_70x70.png?alt=media,14024216633
u-stop-15,U-Stop - S 73rd & Pinelake,,"6930 S 73rd St, Lincoln, NE",68516,,40.74162015,-96.62140624,http://www.u-stop.com/,,https://firebasestorage.googleapis.com/v0/b/promotion-3abec.appspot.com/o/media%2Fstores%2F_resized%2Fu-stopimage_70x70.png?alt=media,15315000900
u-stop-16,U-Stop - S 56th St,On S 56th Street,"5600 S 56th St, Lincoln, NE",68516,U-Stop on S 56th Street,40.7550212,-96.6440875,http://www.u-stop.com/,,https://firebasestorage.googleapis.com/v0/b/promotion-3abec.appspot.com/o/media%2Fstores%2F_resized%2Fu-stopimage_70x70.png?alt=media,14024218308
u-stop-17,U-Stop on N 84th St,On N 84th Street,"6400 N 84th St, Lincoln, NE",68507,U-Stop on N 84th Street,40.87495903,-96.60553687,http://www.u-stop.com/,,https://firebasestorage.googleapis.com/v0/b/promotion-3abec.appspot.com/o/media%2Fstores%2F_resized%2Fu-stopimage_70x70.png?alt=media,14024665593
u-stop-18,U-Stop - Pioneers Blvd,On Pioneers Blvd,"7100 Pioneers Blvd, Lincoln, NE",68506,U-Stop on Pioneers Blvd,40.74161229,-96.62142025,http://www.u-stop.com/,,https://firebasestorage.googleapis.com/v0/b/promotion-3abec.appspot.com/o/media%2Fstores%2F_resized%2Fu-stopimage_70x70.png?alt=media,14024896631
super-c-1,Super C - Ticonderoga Drive,,"2601 Ticonderoga Dr, Lincoln, NE",68521,,40.85898149,-96.6834074,http://www.superc.net/,,https://firebasestorage.googleapis.com/v0/b/promotion-3abec.appspot.com/o/media%2Fstores%2F_resized%2Fsuper-c_50x50.png?alt=media,14024356630
super-c-2,Super C - 17th & L,,"1700 L St, Lincoln, NE",68508,,40.81047493,-96.69652758,http://www.superc.net/,,https://firebasestorage.googleapis.com/v0/b/promotion-3abec.appspot.com/o/media%2Fstores%2F_resized%2Fsuper-c_50x50.png?alt=media,14029758422
super-c-4,Super C - W A St.,,"501 W A St, Lincoln, NE",68522,,40.79866006,-96.726782,http://www.superc.net/,,https://firebasestorage.googleapis.com/v0/b/promotion-3abec.appspot.com/o/media%2Fstores%2F_resized%2Fsuper-c_50x50.png?alt=media,14022618853
super-c-5,Super C - S 10th,,"3202 S 10th St, Lincoln, NE",68502,,40.78073348,-96.70600545,http://www.superc.net/,,https://firebasestorage.googleapis.com/v0/b/promotion-3abec.appspot.com/o/media%2Fstores%2F_resized%2Fsuper-c_50x50.png?alt=media,14024362102
super-c-7,Super C - S 70th St,,"4445 S 70th St, Lincoln, NE",68516,,40.76837575,-96.62581319,http://www.superc.net/,,https://firebasestorage.googleapis.com/v0/b/promotion-3abec.appspot.com/o/media%2Fstores%2F_resized%2Fsuper-c_50x50.png?alt=media,14024846211
super-c-8,Super C - Village Drive,,"3400 Village Dr, Lincoln, NE",68516,,40.75481725,-96.67104854,http://www.superc.net/,,https://firebasestorage.googleapis.com/v0/b/promotion-3abec.appspot.com/o/media%2Fstores%2F_resized%2Fsuper-c_50x50.png?alt=media,14024362105
super-c-9,Super C - Lancaster Ave,,"7229 Lancaster Ave, Denton, NE",68339,,40.73774884,-96.84582467,http://www.superc.net/,,https://firebasestorage.googleapis.com/v0/b/promotion-3abec.appspot.com/o/media%2Fstores%2F_resized%2Fsuper-c_50x50.png?alt=media,14027972002
c-station-1,C Station - Pine Lake,,"1401 Pine Lake Rd, Lincoln, NE",68512,,40.73817244,-96.70081236,n/a,,https://firebasestorage.googleapis.com/v0/b/promotion-3abec.appspot.com/o/media%2Fstores%2F_resized%2Fcstation_70x70.png?alt=media,14024202232
c-station-2,C Station - Coddington Ave,,"1120 S Coddington Ave, Lincoln, NE",68522,,40.80140685,-96.74899311,n/a,,https://firebasestorage.googleapis.com/v0/b/promotion-3abec.appspot.com/o/media%2Fstores%2F_resized%2Fcstation_70x70.png?alt=media,14024355007
norms,Norms - S 48th,,"2510 S 48th St, Lincoln, NE",68506,,40.78668074,-96.65325734,http://www.normson48th.com/,,https://firebasestorage.googleapis.com/v0/b/promotion-3abec.appspot.com/o/media%2Fstores%2F_resized%2Fnormslogo_70x70.png?alt=media,14022618810
prairie-lake,Prairie Lake Shell,,"8600 Amber Hill Ct, Lincoln, NE",68526,,40.73265621,-96.60251115,http://www.prairielakelincoln.com/,,https://firebasestorage.googleapis.com/v0/b/promotion-3abec.appspot.com/o/media%2Fstores%2F_resized%2Fprairie-lake_70x70.png?alt=media,14023280383
pumppantry-1,Pump & Pantry,On W O Street,"345 W O St, Lincoln, NE",68528,Pump & Pantry on South Street and Sun Valley Blvd.,40.81330406,-96.72459546,http://pumpandpantry.com/,https://firebasestorage.googleapis.com/v0/b/promotion-3abec.appspot.com/o/media%2Fstores%2F_resized%2Fpumppantryimage_70x70.png?alt=media,https://firebasestorage.googleapis.com/v0/b/promotion-3abec.appspot.com/o/media%2Fstores%2F_resized%2Fpumppantryimage_70x70.png?alt=media,14024352022
ezgo-1,Ez Go - O Street,,"2555 O St, Lincoln, NE",68510,,40.81300706,-96.6841235,http://www.ezgostores.com/,,https://firebasestorage.googleapis.com/v0/b/promotion-3abec.appspot.com/o/media%2Fstores%2F_resized%2Fezgo_70x70.png?alt=media,14024754775
ezgo-2,Ez Go - Windmill Dr.,,"8411 Windmill Dr, Lincoln, NE",68507,,40.83874453,-96.60500547,http://www.ezgostores.com/,,https://firebasestorage.googleapis.com/v0/b/promotion-3abec.appspot.com/o/media%2Fstores%2F_resized%2Fezgo_70x70.png?alt=media,14024650006
good2go-1,Good2Go - Havelock Ave,,"6006 Havelock Ave, Lincoln, NE",68507,,40.85724431,-96.6381834,n/a,,https://firebasestorage.googleapis.com/v0/b/promotion-3abec.appspot.com/o/media%2Fstores%2F_resized%2Fgood2go_70x70.png?alt=media,14024654588
good2go-2,Good2Go - Fairfield St.,,"2641 Fairfield St, Lincoln, NE",68521,,40.84726187,-96.68279038,n/a,,https://firebasestorage.googleapis.com/v0/b/promotion-3abec.appspot.com/o/media%2Fstores%2F_resized%2Fgood2go_70x70.png?alt=media,14024383384
good2go-3,Good2Go - Belmont Ave,,"1107 Belmont Ave, Lincoln, NE",68521,,40.83907937,-96.70544468,n/a,,https://firebasestorage.googleapis.com/v0/b/promotion-3abec.appspot.com/o/media%2Fstores%2F_resized%2Fgood2go_70x70.png?alt=media,14024357656
fast-mart-1,Fast Mart - N 27th St.,,"6835 N 27th St A, Lincoln, NE",68521,,40.88078894,-96.6825133,n/a,,https://firebasestorage.googleapis.com/v0/b/promotion-3abec.appspot.com/o/media%2Fstores%2F_resized%2Ffast-mart_100x100.PNG?alt=media,14027427417
fast-mart-2,Fast Mart - A Street,,"3293 A St, Lincoln, NE",68510,,40.79875167,-96.67317798,n/a,,https://firebasestorage.googleapis.com/v0/b/promotion-3abec.appspot.com/o/media%2Fstores%2F_resized%2Ffast-mart_100x100.PNG?alt=media,14024774417
fast-mart-3,Fast Mart - N 6th St.,,"215 N 6th St, Seward, NE",68434,,40.90914366,-97.09945912,n/a,,https://firebasestorage.googleapis.com/v0/b/promotion-3abec.appspot.com/o/media%2Fstores%2F_resized%2Ffast-mart_100x100.PNG?alt=media,14026433229
np-mart-1,NP Mart,On O Street,"2801 O St, Lincoln, NE",68510,,40.81334039,-96.68057821,n/a,,https://firebasestorage.googleapis.com/v0/b/promotion-3abec.appspot.com/o/media%2Fstores%2F_resized%2Fnp-mart-1_50x50.PNG?alt=media,14029046700
speedee-1,Speedee - S 85th St,,"5757 S 85th St, Lincoln, NE",68526,,40.75431823,-96.60526876,n/a,,https://firebasestorage.googleapis.com/v0/b/promotion-3abec.appspot.com/o/media%2Fstores%2F_resized%2Fspeedee_70x70.png?alt=media,14024885757
speedee-2,Speedee - S 27th St,,"2030 S 27th St, Lincoln, NE 68502",,,40.79210739,-96.68227476,n/a,,https://firebasestorage.googleapis.com/v0/b/promotion-3abec.appspot.com/o/media%2Fstores%2F_resized%2Fspeedee_70x70.png?alt=media,14024353389
stopnshop-1,"B & B, Stop N Shop - N 33rd St.",,"5700 N 33rd St, Lincoln, NE",68504,,40.86962718,-96.67167131,https://stopandshop.com/,,https://firebasestorage.googleapis.com/v0/b/promotion-3abec.appspot.com/o/media%2Fstores%2F_resized%2Fstopnshop_70x70.png?alt=media,14024774041
shoemakers-1,Shoemaker's Travel & Service Center,,"151 SW 48th St, Lincoln, NE",68522,,40.81273573,-96.7886855,https://www.shoemakerstravelcenter.com/,,https://firebasestorage.googleapis.com/v0/b/promotion-3abec.appspot.com/o/media%2Fstores%2F_resized%2Fshoemakers_70x70.png?alt=media,14024741771
shoemakers-2,Shoemaker's Travel & Service Center,,"1200 Saltillo Rd, Roca, NE",68430,,40.69803875,-96.70431351,https://www.shoemakerstravelcenter.com/,,https://firebasestorage.googleapis.com/v0/b/promotion-3abec.appspot.com/o/media%2Fstores%2F_resized%2Fshoemakers_70x70.png?alt=media,14024207899
stopnshopne-1,Stop N Shop - N 48th,,"2200 N 48th St, Lincoln, NE",68504,,40.83455513,-96.65352036,http://www.stopnshopne.com/,,https://firebasestorage.googleapis.com/v0/b/promotion-3abec.appspot.com/o/media%2Fstores%2F_resized%2Fstopnshopne1_70x70.png?alt=media,14024662881
stopnshopne-2,Stop N Shop - Randolph St,,"4801 Randolph St, Lincoln, NE",68510,,40.80573894,-96.65336678,http://www.stopnshopne.com/,,https://firebasestorage.googleapis.com/v0/b/promotion-3abec.appspot.com/o/media%2Fstores%2F_resized%2Fstopnshopne1_70x70.png?alt=media,14024864112
stopnshopne-3,Stop N Shop - S 16th St,,"5640 S 16th St, Lincoln, NE",68512,,40.75608003,-96.69887037,http://www.stopnshopne.com/,,https://firebasestorage.googleapis.com/v0/b/promotion-3abec.appspot.com/o/media%2Fstores%2F_resized%2Fstopnshopne1_70x70.png?alt=media,14024202252
stopnshopne-4,Stop N Shop - S 33rd St,,"8511 S 33rd St, Lincoln, NE",68516,,40.72621892,-96.67393188,http://www.stopnshopne.com/,,https://firebasestorage.googleapis.com/v0/b/promotion-3abec.appspot.com/o/media%2Fstores%2F_resized%2Fstopnshopne1_70x70.png?alt=media,14024203000
stopnshopne-5,Stop N Shop - W O St,,"1502 W O St, Lincoln, NE",68528,,40.81414829,-96.74383805,http://www.stopnshopne.com/,,https://firebasestorage.googleapis.com/v0/b/promotion-3abec.appspot.com/o/media%2Fstores%2F_resized%2Fstopnshopne1_70x70.png?alt=media,14024387171
caseys-1,Casey's - S 13th & E,"On S 13th St, in downtown","1001 S 13th St, Lincoln, NE",68508,"Casey's on S 13th St, right by the capitol in downtown Lincoln.",40.8032877,-96.70329342,https://www.caseys.com/general-store/ne-lincoln/1001-s-13th-st/2720,,https://firebasestorage.googleapis.com/v0/b/promotion-3abec.appspot.com/o/media%2Fstores%2F_resized%2Fcaseysimage_50x50.png?alt=media,14024350247
caseys-2,Casey's - South Street,On South Street in Lincoln,"900 South St, Lincoln, NE",68502,Casey's on South Street.,40.79218623,-96.70799982,https://www.caseys.com/general-store/ne-lincoln/900-south-st/,,https://firebasestorage.googleapis.com/v0/b/promotion-3abec.appspot.com/o/media%2Fstores%2F_resized%2Fcaseysimage_50x50.png?alt=media,14024754680
caseys-3,Casey's - 20th Street,On 20th Street,"110 NW 20th St, Lincoln, NE",68528,Casey's on 20th Street.,40.8144445,-96.7488314,https://www.caseys.com/general-store/ne-lincoln/110-nw-20th-st/3515?preservedSearchAddress=110%20NW%2020th%20St%2C%20Lincoln%2C%20NE%2C%20USA&preservedSearchLatitude=40.8144433&preservedSearchLongitude=-96.74875109999999,,https://firebasestorage.googleapis.com/v0/b/promotion-3abec.appspot.com/o/media%2Fstores%2F_resized%2Fcaseysimage_50x50.png?alt=media,14027420235
caseys-4,Casey's - W A Street,On A Street,"606 W A St, Lincoln, NE",68522,Casey's on A Street.,40.79941777,-96.72866323,https://www.caseys.com/general-store/ne-lincoln/606-west-a-st/2981?utm_medium=organic&utm_source=google&utm_campaign=yext&y_source=1_MTcyMDYxNjEtNzE1LWxvY2F0aW9uLmdvb2dsZV93ZWJzaXRlX292ZXJyaWRl,,https://firebasestorage.googleapis.com/v0/b/promotion-3abec.appspot.com/o/media%2Fstores%2F_resized%2Fcaseysimage_50x50.png?alt=media,14027424457
caseys-5,Casey's - NW 12th Street,On 12th Street,"2500 NW 12th St, Lincoln, NE",68521,Casey's on 12th Street.,40.83764209,-96.73887581,https://www.caseys.com/general-store/ne-lincoln/2500-nw-12th-st/2970?preservedSearchAddress=North%2012th%20Street%2C%20Lincoln%2C%20NE%2C%20USA&preservedSearchLatitude=40.8158519&preservedSearchLongitude=-96.7040201,,https://firebasestorage.googleapis.com/v0/b/promotion-3abec.appspot.com/o/media%2Fstores%2F_resized%2Fcaseysimage_50x50.png?alt=media,14024745007
caseys-6,Casey's - Cornhusker Hwy,On Cornhusker Hwy.,"550 W Cornhusker Hwy, Lincoln, NE",68521,Casey's on Cornhusker Hwy.,40.8360443,-96.72713229,https://www.caseys.com/general-store/ne-lincoln/550-w-cornhusker-hwy/1934?preservedSearchAddress=West%20Cornhusker%20Highway%2C%20Lincoln%2C%20NE%2C%20USA&preservedSearchLatitude=40.835601&preservedSearchLongitude=-96.73035499999999,,https://firebasestorage.googleapis.com/v0/b/promotion-3abec.appspot.com/o/media%2Fstores%2F_resized%2Fcaseysimage_50x50.png?alt=media,14024753337
caseys-7,Casey's - Woodlawn Road,On Woodlawn Road,"4131 Old Woodlawn Rd, Lincoln, NE",68524,"Casey's on Woodlawn Road, Northwest Lincoln.",40.87958335,-96.77824175,https://www.caseys.com/general-store/ne-lincoln/4131-old-woodlawn-rd/2721?preservedSearchAddress=Woodlawn%2C%20NE%2C%20USA&preservedSearchLatitude=40.8800027&preservedSearchLongitude=-96.77918509999999,,https://firebasestorage.googleapis.com/v0/b/promotion-3abec.appspot.com/o/media%2Fstores%2F_resized%2Fcaseysimage_50x50.png?alt=media,14024703101
caseys-8,Casey's - Adams Street,On Adams Street,"4715 W Adams St, Lincoln, NE",68524,"Casey's on Adams, West Lincoln.",40.84173852,-96.78650421,https://www.caseys.com/general-store/ne-lincoln/4715-w-adams-st/2977?preservedSearchAddress=West%20Adams%20Street%2C%20Lincoln%2C%20NE%2C%20USA&preservedSearchLatitude=40.8429928&preservedSearchLongitude=-96.74873840000001,,https://firebasestorage.googleapis.com/v0/b/promotion-3abec.appspot.com/o/media%2Fstores%2F_resized%2Fcaseysimage_50x50.png?alt=media,14024703610
caseys-9,Casey's - N 10th Street,On 10th Street,"1200 N 10th St, Lincoln, NE",68508,"Casey's on 10th Street, near downtown.",40.82603882,-96.70651186,https://www.caseys.com/general-store/ne-lincoln/1200-n-10th-st/2974?preservedSearchAddress=North%2010th%20Street%2C%20Lincoln%2C%20NE%2C%20USA&preservedSearchLatitude=40.8235611&preservedSearchLongitude=-96.7069891,,https://firebasestorage.googleapis.com/v0/b/promotion-3abec.appspot.com/o/media%2Fstores%2F_resized%2Fcaseysimage_50x50.png?alt=media,14024779870
caseys-10,Casey's - N 27th Street,On 27th Street,"4411 N 27th St, Lincoln, NE",68521,Casey's on 27th Street.,40.85502214,-96.68266462,https://www.caseys.com/general-store/ne-lincoln/4411-n-27th-st/2978?utm_medium=organic&utm_source=google&utm_campaign=yext&y_source=1_MTcyMDYxNzQtNzE1LWxvY2F0aW9uLmdvb2dsZV93ZWJzaXRlX292ZXJyaWRl,,https://firebasestorage.googleapis.com/v0/b/promotion-3abec.appspot.com/o/media%2Fstores%2F_resized%2Fcaseysimage_50x50.png?alt=media,14024350247
caseys-11,Casey's - Holdredge Street,On Holdredge Street,"3291 Holdrege St, Lincoln, NE",68503,Casey's on Holdredge Street.,40.82769847,-96.67320622,https://www.caseys.com/general-store/ne-lincoln/3291-holdrege-st/2982?utm_medium=organic&utm_source=google&utm_campaign=yext&y_source=1_MTcyMDc2NjItNzE1LWxvY2F0aW9uLmdvb2dsZV93ZWJzaXRlX292ZXJyaWRl,,https://firebasestorage.googleapis.com/v0/b/promotion-3abec.appspot.com/o/media%2Fstores%2F_resized%2Fcaseysimage_50x50.png?alt=media,14024662933
caseys-12,Casey's - Adams Street,On Adams Street,"4002 Adams St, Lincoln, NE",68504,Casey's on Adams Street.,40.84303273,-96.66406104,https://www.caseys.com/general-store/ne-lincoln/4002-adams-st/2980?utm_medium=organic&utm_source=google&utm_campaign=yext&y_source=1_MTcyMDc0NDEtNzE1LWxvY2F0aW9uLmdvb2dsZV93ZWJzaXRlX292ZXJyaWRl,,https://firebasestorage.googleapis.com/v0/b/promotion-3abec.appspot.com/o/media%2Fstores%2F_resized%2Fcaseysimage_50x50.png?alt=media,14024647212
caseys-13,Casey's - N 48th Street,On 48th Street,"3500 N 48th St Ste 1 Ste 1, Lincoln, NE",68504,Casey's on 48th Street.,40.84791384,-96.65311056,https://www.caseys.com/general-store/ne-lincoln/3500-n-48th-st-ste-1/2973?utm_medium=organic&utm_source=google&utm_campaign=yext&y_source=1_MTcyMDc0NjItNzE1LWxvY2F0aW9uLmdvb2dsZV93ZWJzaXRlX292ZXJyaWRl,,https://firebasestorage.googleapis.com/v0/b/promotion-3abec.appspot.com/o/media%2Fstores%2F_resized%2Fcaseysimage_50x50.png?alt=media,14024663480
caseys-14,Casey's - Superior Street,On Superior Street,"5500 Superior St, Lincoln, NE",68504,Casey's on Superior Street.,40.85838997,-96.64478024,https://www.caseys.com/general-store/ne-lincoln/5500-superior-st/2729?utm_medium=organic&utm_source=google&utm_campaign=yext&y_source=1_MTcyMDY4ODYtNzE1LWxvY2F0aW9uLmdvb2dsZV93ZWJzaXRlX292ZXJyaWRl,,https://firebasestorage.googleapis.com/v0/b/promotion-3abec.appspot.com/o/media%2Fstores%2F_resized%2Fcaseysimage_50x50.png?alt=media,14023250494
caseys-15,Casey's - N 70th Street (Havelock),On 70th Street,"4335 N 70th St, Lincoln, NE",68507,Casey's on 70th Street by Havelock.,40.85663241,-96.62509467,https://www.caseys.com/general-store/ne-lincoln/4335-n-70th-st/2744?utm_medium=organic&utm_source=google&utm_campaign=yext&y_source=1_MTcyMDY4NDctNzE1LWxvY2F0aW9uLmdvb2dsZV93ZWJzaXRlX292ZXJyaWRl,,https://firebasestorage.googleapis.com/v0/b/promotion-3abec.appspot.com/o/media%2Fstores%2F_resized%2Fcaseysimage_50x50.png?alt=media,14024664982
caseys-16,Casey's - N 70th St (Adams),On 70th Street,"3003 N 70th St, Lincoln, NE",68507,"Casey's on 70th Street, by Adams.",40.84272382,-96.62532207,https://www.caseys.com/general-store/ne-lincoln/3003-n-70th-st/2724?utm_medium=organic&utm_source=google&utm_campaign=yext&y_source=1_MTcyMDY4NzEtNzE1LWxvY2F0aW9uLmdvb2dsZV93ZWJzaXRlX292ZXJyaWRl,,https://firebasestorage.googleapis.com/v0/b/promotion-3abec.appspot.com/o/media%2Fstores%2F_resized%2Fcaseysimage_50x50.png?alt=media,14024661114
caseys-17,Casey's - Cotner Blvd,On Cotner Blvd,"2243 N Cotner Blvd, Lincoln, NE",68505,Casey's on Cotner Blvd.,40.83466727,-96.63089169,https://www.caseys.com/general-store/ne-lincoln/2243-n-cotner-blvd/2745?utm_medium=organic&utm_source=google&utm_campaign=yext&y_source=1_MTcyMDU3ODctNzE1LWxvY2F0aW9uLmdvb2dsZV93ZWJzaXRlX292ZXJyaWRl,,https://firebasestorage.googleapis.com/v0/b/promotion-3abec.appspot.com/o/media%2Fstores%2F_resized%2Fcaseysimage_50x50.png?alt=media,14024647111
caseys-18,Casey's - S 48th St,On S 48th Street,"4141 S 48th St, Lincoln, NE",68506,Casey's on South 48th Street.,40.77109722,-96.65492028,https://www.caseys.com/general-store/ne-lincoln/4141-s-48th-st/2979?utm_medium=organic&utm_source=google&utm_campaign=yext&y_source=1_MTcyMDYxNzUtNzE1LWxvY2F0aW9uLmdvb2dsZV93ZWJzaXRlX292ZXJyaWRl,,https://firebasestorage.googleapis.com/v0/b/promotion-3abec.appspot.com/o/media%2Fstores%2F_resized%2Fcaseysimage_50x50.png?alt=media,14024894213
spot-spirits,Spot Spirits & Discount Tobacco,,"13851 Guildford St suite a, Waverly, NE",68462,,40.91272967,-96.53221613,n/a,,https://firebasestorage.googleapis.com/v0/b/promotion-3abec.appspot.com/o/media%2Fstores%2F_resized%2Fspots-spirits_70x70.png?alt=media,14027862503
kens-kegs,Ken's Kegs,,"1350 N 48th St, Lincoln, NE",68504,,40.82682166,-96.65314935,n/a,,https://firebasestorage.googleapis.com/v0/b/promotion-3abec.appspot.com/o/media%2Fstores%2F_resized%2Fkens-keg_70x70.png?alt=media,14024663336
happy-raven,The Happy Raven - Downtown,,"122 N 11th St, Lincoln, NE",68508,,40.81397438,-96.70520894,n/a,,https://firebasestorage.googleapis.com/v0/b/promotion-3abec.appspot.com/o/media%2Fstores%2F_resized%2Fhappy-raven_70x70.png?alt=media,14027420004
city-spirits,City Spirts,,"2620 Stockwell St B, Lincoln, NE",68502,,40.77527202,-96.68279191,n/a,,https://firebasestorage.googleapis.com/v0/b/promotion-3abec.appspot.com/o/media%2Fstores%2F_resized%2Fcity-spirts_50x50.PNG?alt=media,14024232085
south-street,South Street Liquor,,"1000 South St, Lincoln, NE",68502,,40.79207054,-96.70688162,n/a,,https://firebasestorage.googleapis.com/v0/b/promotion-3abec.appspot.com/o/media%2Fstores%2F_resized%2Fsouth-street_50x50.png?alt=media,14024769463
the-still,The Still,,"6820 S 70th St, Lincoln, NE",68516,,40.74294652,-96.62475459,http://www.thestill.com/,https://firebasestorage.googleapis.com/v0/b/promotion-3abec.appspot.com/o/media%2Fstores%2F_resized%2Fthe-still_70x70.jpg?alt=media,https://firebasestorage.googleapis.com/v0/b/promotion-3abec.appspot.com/o/media%2Fstores%2F_resized%2Fthe-still_70x70.jpg?alt=media,14024231875
castle-drive,Castle Drive In Beer & Liquors,,"6001 Havelock Ave, Lincoln, NE",68507,,40.85684966,-96.638391,,,https://firebasestorage.googleapis.com/v0/b/promotion-3abec.appspot.com/o/media%2Fstores%2F_resized%2Fcastle-drive_70x70.png?alt=media&token=8b1341e9-05ca-4555-b35d-e873840f1cf8,14024654313
cornhusker-bottle,Cornhusker Bottle & Smoke Shop,,"2310 N 1st St #3, Lincoln, NE",68521,,40.83635399,-96.71957373,n/a,,https://firebasestorage.googleapis.com/v0/b/promotion-3abec.appspot.com/o/media%2Fstores%2F_resized%2Fcornhusker-bottle_70x70.png?alt=media,14024741042
jimmys,Jimmy's Liquor & Tobacco,,"1053 Saunders Ave, Lincoln, NE",68521,,40.83637631,-96.70668937,https://jimmys-liquor-tobacco.business.site/,,https://firebasestorage.googleapis.com/v0/b/promotion-3abec.appspot.com/o/media%2Fstores%2F_resized%2Fjimmys_50x50.png?alt=media,15315001975
etos-liquor,Eto's Liquor,Near the state capitol by 11th and G,"807 S 11th St, Lincoln, NE",68508,"Eto's Liquor is conveniently located on 11th and G near the capitol building and has selection of wine, liquor, beer and spirits.",40.80562725,-96.70581675,https://etos-liquor.com/,https://firebasestorage.googleapis.com/v0/b/promotion-3abec.appspot.com/o/media%2Fstores%2F_resized%2Fetos-liquorlogo_100x100.jpg?alt=media,https://firebasestorage.googleapis.com/v0/b/promotion-3abec.appspot.com/o/media%2Fstores%2F_resized%2Fetos-liquorlogo_100x100.jpg?alt=media,14024746820
gitnspit,Git N Spit- W O St,On W O Street,"951 W O St, Lincoln, NE",68528,Sinclair ocated On W O Street.,40.81350847,-96.73625027,https://www.sinclairoil.com/station/sinclair-951-w-o-st-lincoln-ne-68528?utm_source=google&utm_medium=yext,https://firebasestorage.googleapis.com/v0/b/promotion-3abec.appspot.com/o/media%2Fstores%2F_resized%2Fgitnsplitimage_100x100.png?alt=media,https://firebasestorage.googleapis.com/v0/b/promotion-3abec.appspot.com/o/media%2Fstores%2F_resized%2Fgitnsplitimage_100x100.png?alt=media,14024745884
kong-1,Kong's Liquor,On n 56th Street,"1401 N 56th St # 106, Lincoln, NE",68504,Kong's Liquor on N 56th Street.,40.82746388,-96.64439538,n/a,https://firebasestorage.googleapis.com/v0/b/promotion-3abec.appspot.com/o/media%2Fstores%2F_resized%2Fkongimage_100x100.png?alt=media,https://firebasestorage.googleapis.com/v0/b/promotion-3abec.appspot.com/o/media%2Fstores%2F_resized%2Fkongimage_100x100.png?alt=media,14024645616
leons,Leon’s Gourmet Grocer,On Winthrop Road,"2200 Winthrop Rd, Lincoln, NE",68502,Leon's Gourmet Grocer on Winthrop Rd off South St.,40.79048234,-96.67527105,http://www.leonsgourmetgrocer.com/,https://firebasestorage.googleapis.com/v0/b/promotion-3abec.appspot.com/o/media%2Fstores%2F_resized%2Fleonsimage_100x100.PNG?alt=media,https://firebasestorage.googleapis.com/v0/b/promotion-3abec.appspot.com/o/media%2Fstores%2F_resized%2Fleonsimage_100x100.PNG?alt=media,14024882307
wine-bar-spirit-1,"Wine, Beer, and Spirits Lincoln",On N 27th Street,"5220 N 27th St, Lincoln, NE",68521,"Wine, Beer, and Spirits is located on N 27th in the Lincoln Crossing Plaza.",40.86373432,-96.68027004,http://winebeerandspirits.com/,https://firebasestorage.googleapis.com/v0/b/promotion-3abec.appspot.com/o/media%2Fstores%2F_resized%2Fwinebeerspirits_100x100.PNG?alt=media,https://firebasestorage.googleapis.com/v0/b/promotion-3abec.appspot.com/o/media%2Fstores%2F_resized%2Fwinebeerspirits_100x100.PNG?alt=media,15317774388
moran-1,Moran's Liquor Works,On A Street,"3400 A St, Lincoln, NE",68510,Moran is located on 40th and A.,40.79915565,-96.6716665,http://www.moransliquor.com/,https://firebasestorage.googleapis.com/v0/b/promotion-3abec.appspot.com/o/media%2Fstores%2F_resized%2Fmoranimage_100x100.png?alt=media,https://firebasestorage.googleapis.com/v0/b/promotion-3abec.appspot.com/o/media%2Fstores%2F_resized%2Fmoranimage_100x100.png?alt=media,14024758814
discount-city-1,Discount City,On S 48th Street,"5560 S 48th St Ste 5, Lincoln, NE",68516,Discount City is located on S 48th and Hwy 2.,40.75765015,-96.65312323,http://discountcitylincoln.com/,https://firebasestorage.googleapis.com/v0/b/promotion-3abec.appspot.com/o/media%2Fstores%2F_resized%2Fdiscountcityimage_100x100.png?alt=media,https://firebasestorage.googleapis.com/v0/b/promotion-3abec.appspot.com/o/media%2Fstores%2F_resized%2Fdiscountcityimage_100x100.png?alt=media,14024205711
mums-liquor,Mum's Liquor,On E O Street,"2202 E O St, Lincoln, NE",68510,Mum's Liquor is located on O and N 22nd Street.,40.81375974,-96.68926833,n/a,https://firebasestorage.googleapis.com/v0/b/promotion-3abec.appspot.com/o/media%2Fstores%2F_resized%2Fmums-liquorimage_100x100.png?alt=media,https://firebasestorage.googleapis.com/v0/b/promotion-3abec.appspot.com/o/media%2Fstores%2F_resized%2Fmums-liquorimage_100x100.png?alt=media,14024777516
meatandbeer,Meat and Beers,On 11th St off Cornhusker Hwy,"2727 N 11th St, Lincoln, NE",68521,Meat and Beers on 11th St off Cornhusker Hwy,40.83945832,-96.7064902,n/a,https://firebasestorage.googleapis.com/v0/b/promotion-3abec.appspot.com/o/media%2Fstores%2F_resized%2FmeatandbeerImage_100x100.png?alt=media,https://firebasestorage.googleapis.com/v0/b/promotion-3abec.appspot.com/o/media%2Fstores%2F_resized%2FmeatandbeerImage_100x100.png?alt=media,14024351000
noels-liquor,Noel’s Liquor,,"840 N 48th St, Lincoln, NE",68504,,40.82180506,-96.65330279,,,https://firebasestorage.googleapis.com/v0/b/promotion-3abec.appspot.com/o/media%2Fstores%2F_resized%2Fneols-liquor-logo_100x100.png?alt=media&token=878d03df-72b2-4954-82b3-cfb94e4952a7,14029047887
n-street,N Street Liquor,On O and N Street.,"1801 O St, Lincoln, NE",68508,N Street is located right off of O Street.,40.81325065,-96.69510184,http://www.nstreetlincoln.com/,https://firebasestorage.googleapis.com/v0/b/promotion-3abec.appspot.com/o/media%2Fstores%2F_resized%2Fn-streetimage_100x100.jpg?alt=media,https://firebasestorage.googleapis.com/v0/b/promotion-3abec.appspot.com/o/media%2Fstores%2F_resized%2Fn-streetimage_100x100.jpg?alt=media,14024776077
walmart-1,Walmart - N 27th,,"4700 N 27th St, Lincoln, NE",68521,,40.85840843,-96.67792521,https://www.walmart.com/store/1943-lincoln-ne,https://firebasestorage.googleapis.com/v0/b/promotion-3abec.appspot.com/o/media%2Fstores%2F_resized%2Fwalmart_50x50.png?alt=media,https://firebasestorage.googleapis.com/v0/b/promotion-3abec.appspot.com/o/media%2Fstores%2F_resized%2Fwalmart_50x50.png?alt=media,14024384377
walmart-2,Walmart - N 85th,,"3400 N 85th St, Lincoln, NE",68507,,40.84872792,-96.60197511,https://www.walmart.com/store/1943-lincoln-ne,https://firebasestorage.googleapis.com/v0/b/promotion-3abec.appspot.com/o/media%2Fstores%2F_resized%2Fwalmart_50x50.png?alt=media,https://firebasestorage.googleapis.com/v0/b/promotion-3abec.appspot.com/o/media%2Fstores%2F_resized%2Fwalmart_50x50.png?alt=media,14024660447
walmart-3,Walmart - S 27th,,"2500 Jamie Ln, Lincoln, NE",68512,,40.72969127,-96.6848386,https://www.walmart.com/store/2432-lincoln-ne,https://firebasestorage.googleapis.com/v0/b/promotion-3abec.appspot.com/o/media%2Fstores%2F_resized%2Fwalmart_50x50.png?alt=media,https://firebasestorage.googleapis.com/v0/b/promotion-3abec.appspot.com/o/media%2Fstores%2F_resized%2Fwalmart_50x50.png?alt=media,14029756171
walmart-4,Walmart - S 87th,,"8700 Andermatt Dr, Lincoln, NE",68526,,40.73605966,-96.59791024,https://www.walmart.com/store/3278-lincoln-ne,https://firebasestorage.googleapis.com/v0/b/promotion-3abec.appspot.com/o/media%2Fstores%2F_resized%2Fwalmart_50x50.png?alt=media,https://firebasestorage.googleapis.com/v0/b/promotion-3abec.appspot.com/o/media%2Fstores%2F_resized%2Fwalmart_50x50.png?alt=media,14024846166
target-1,Target - S 40th & Yankee Hill,,"8201 S 40th St, Lincoln, NE",68516,,40.72810435,-96.66556761,https://www.target.com/sl/lincoln-sw/2303,https://firebasestorage.googleapis.com/v0/b/promotion-3abec.appspot.com/o/media%2Fstores%2F_resized%2Ftargetlogo_50x50.png?alt=media,https://firebasestorage.googleapis.com/v0/b/promotion-3abec.appspot.com/o/media%2Fstores%2F_resized%2Ftargetlogo_50x50.png?alt=media,14024203540
target-2,Target - S 56th & Hwy 2,,"5330 S 56th St, Lincoln, NE",68516,,40.75996234,-96.64076838,https://www.target.com/sl/lincoln-south/879,https://firebasestorage.googleapis.com/v0/b/promotion-3abec.appspot.com/o/media%2Fstores%2F_resized%2Ftargetlogo_50x50.png?alt=media,https://firebasestorage.googleapis.com/v0/b/promotion-3abec.appspot.com/o/media%2Fstores%2F_resized%2Ftargetlogo_50x50.png?alt=media,14024230300
target-3,Target - N 48th,,"333 N 48th St, Lincoln, NE",68504,,40.81611702,-96.65499764,https://www.target.com/sl/lincoln/217,https://firebasestorage.googleapis.com/v0/b/promotion-3abec.appspot.com/o/media%2Fstores%2F_resized%2Ftargetlogo_50x50.png?alt=media,https://firebasestorage.googleapis.com/v0/b/promotion-3abec.appspot.com/o/media%2Fstores%2F_resized%2Ftargetlogo_50x50.png?alt=media,14024648292
whole-foods-1,Whole Foods - O Street,,"6055 O St, Lincoln, NE",68510,,40.81307662,-96.63918046,https://www.wholefoodsmarket.com/stores/lincoln,https://firebasestorage.googleapis.com/v0/b/promotion-3abec.appspot.com/o/media%2Fstores%2F_resized%2Fwholefoods_50x50.png?alt=media,https://firebasestorage.googleapis.com/v0/b/promotion-3abec.appspot.com/o/media%2Fstores%2F_resized%2Fwholefoods_50x50.png?alt=media,14024866000
mai-1,Mai's Market,,"1340 W O St, Lincoln, NE",68528,,40.81445591,-96.74161143,n/a,https://firebasestorage.googleapis.com/v0/b/promotion-3abec.appspot.com/o/media%2Fstores%2F_resized%2Fmais-market_70x70.png?alt=media,https://firebasestorage.googleapis.com/v0/b/promotion-3abec.appspot.com/o/media%2Fstores%2F_resized%2Fmais-market_70x70.png?alt=media,14023280576
russs-1,Russ’s Market - 17th & Washington St,On 17th & Washington Street,"1709 Washington St, Lincoln, NE",68502,Russ’s Market At 17th & Washington St.,40.79767168,-96.69631232,https://www.russmarket.com/,https://firebasestorage.googleapis.com/v0/b/promotion-3abec.appspot.com/o/media%2Fstores%2F_resized%2Frusssimage_100x100.png?alt=media,https://firebasestorage.googleapis.com/v0/b/promotion-3abec.appspot.com/o/media%2Fstores%2F_resized%2Frusssimage_100x100.png?alt=media,14024771238
russs-2,Russ’s Market - Coddington & West A,On S Coddington Ave,"1550 S Coddington Ave, Lincoln, NE",68522,"Russ's on S Coddington Ave in Lincoln, NE.",40.7980441,-96.74755893,https://russmarket.com/,https://firebasestorage.googleapis.com/v0/b/promotion-3abec.appspot.com/o/media%2Fstores%2F_resized%2Frusssimage_100x100.png?alt=media,https://firebasestorage.googleapis.com/v0/b/promotion-3abec.appspot.com/o/media%2Fstores%2F_resized%2Frusssimage_100x100.png?alt=media,14024776236
russs-3,Russ’s Market - 33rd & Hwy 2,On 33rd & Hwy 2,"4400 S 33rd Ct, Lincoln, NE",68516,Russ's on Hwy 2 & 33rd Ct.,40.76749781,-96.67169616,https://www.russmarket.com/,https://firebasestorage.googleapis.com/v0/b/promotion-3abec.appspot.com/o/media%2Fstores%2F_resized%2Frusssimage_100x100.png?alt=media,https://firebasestorage.googleapis.com/v0/b/promotion-3abec.appspot.com/o/media%2Fstores%2F_resized%2Frusssimage_100x100.png?alt=media,14024201414
russs-4,Russ’s Market - 66th & O St,On 66th and O St,"130 N 66th St, Lincoln, NE",68505,Russ's on 66th and O St,40.8143724,-96.62824096,https://www.russmarket.com/,https://firebasestorage.googleapis.com/v0/b/promotion-3abec.appspot.com/o/media%2Fstores%2F_resized%2Frusssimage_100x100.png?alt=media,https://firebasestorage.googleapis.com/v0/b/promotion-3abec.appspot.com/o/media%2Fstores%2F_resized%2Frusssimage_100x100.png?alt=media,14024668111
russs-5,Russ's Market - Havelock,On Havelock Ave,"6300 Havelock Ave, Lincoln, NE",68507,Russ's on Havelock Ave.,40.85780084,-96.63360768,https://www.russmarket.com/,https://firebasestorage.googleapis.com/v0/b/promotion-3abec.appspot.com/o/media%2Fstores%2F_resized%2Frusssimage_100x100.png?alt=media,https://firebasestorage.googleapis.com/v0/b/promotion-3abec.appspot.com/o/media%2Fstores%2F_resized%2Frusssimage_100x100.png?alt=media,14024645804
russs-6,"Russ's Market Express - Waverly, NE",On Guildford St.,"13901 Guildford St, Waverly, NE",68462,"Russ's on Guildford St in Waverly, NE.",40.91333704,-96.5313057,https://www.russmarket.com/,https://firebasestorage.googleapis.com/v0/b/promotion-3abec.appspot.com/o/media%2Fstores%2F_resized%2Frusssimage_100x100.png?alt=media,https://firebasestorage.googleapis.com/v0/b/promotion-3abec.appspot.com/o/media%2Fstores%2F_resized%2Frusssimage_100x100.png?alt=media,14027862610
supersaver-1,Super Saver - N 27th Street,On Cornhusker Hwy.,"2662 Cornhusker Hwy, Lincoln, NE",68521,Supersaver on N 27th and Cornhusker Hwy.,40.84373164,-96.68308309,https://super-saver.com/,https://firebasestorage.googleapis.com/v0/b/promotion-3abec.appspot.com/o/media%2Fstores%2F_resized%2Fsupersaverimage_100x100.png?alt=media,https://firebasestorage.googleapis.com/v0/b/promotion-3abec.appspot.com/o/media%2Fstores%2F_resized%2Fsupersaverimage_100x100.png?alt=media,14024667100
supersaver-2,Super Saver - 27th & Pine Lake,On 27th & Pine Lake,"2525 Pine Lake Rd, Lincoln, NE",68512,Supersaver on 27th & Pine Lake.,40.73842802,-96.68451077,http://www.super-saver.com/,https://firebasestorage.googleapis.com/v0/b/promotion-3abec.appspot.com/o/media%2Fstores%2F_resized%2Fsupersaverimage_100x100.png?alt=media,https://firebasestorage.googleapis.com/v0/b/promotion-3abec.appspot.com/o/media%2Fstores%2F_resized%2Fsupersaverimage_100x100.png?alt=media,14024202000
supersaver-3,Super Saver - 48th & O,On 48th & O Street,"233 N 48th St, Lincoln, NE",68504,Super Saver on 48th & O Street.,40.81483483,-96.65527997,http://www.super-saver.com/,https://firebasestorage.googleapis.com/v0/b/promotion-3abec.appspot.com/o/media%2Fstores%2F_resized%2Fsupersaverimage_100x100.png?alt=media,https://firebasestorage.googleapis.com/v0/b/promotion-3abec.appspot.com/o/media%2Fstores%2F_resized%2Fsupersaverimage_100x100.png?alt=media,14024648552
supersaver-4,Super Saver - 56th & Hwy 2,On 56th & Hwy 2,"5440 S 56th St, Lincoln, NE",68516,Supersaver on 56th & Hwy 2.,40.75791058,-96.64025024,http://www.super-saver.com/,https://firebasestorage.googleapis.com/v0/b/promotion-3abec.appspot.com/o/media%2Fstores%2F_resized%2Fsupersaverimage_100x100.png?alt=media,https://firebasestorage.googleapis.com/v0/b/promotion-3abec.appspot.com/o/media%2Fstores%2F_resized%2Fsupersaverimage_100x100.png?alt=media,14024237181
supersaver-5,Super Saver - Fallbrook,In the Fallbrook neighborhood,"840 Fallbrook Blvd, Lincoln, NE",68521,Supersaver in the Fallbrook area.,40.87788459,-96.73491702,http://www.super-saver.com/,https://firebasestorage.googleapis.com/v0/b/promotion-3abec.appspot.com/o/media%2Fstores%2F_resized%2Fsupersaverimage_100x100.png?alt=media,https://firebasestorage.googleapis.com/v0/b/promotion-3abec.appspot.com/o/media%2Fstores%2F_resized%2Fsupersaverimage_100x100.png?alt=media,14024388880
hyvee-1,Hyvee - O Street,On O Street,"5010 O St, Lincoln, NE",68510,Hyvee on O Street.,40.8147471,-96.64997028,https://www.hy-vee.com/stores/detail.aspx?s=90&utm_source=google&utm_medium=organic&utm_campaign=gmb-listing,https://firebasestorage.googleapis.com/v0/b/promotion-3abec.appspot.com/o/media%2Fstores%2F_resized%2Fhyveeimage_100x100.png?alt=media,https://firebasestorage.googleapis.com/v0/b/promotion-3abec.appspot.com/o/media%2Fstores%2F_resized%2Fhyveeimage_100x100.png?alt=media,14024837707
hyvee-2,Hyvee - N 27th St,On N 27th Street,"5020 N 27th St, Lincoln, NE",68521,Hyvee on N 27th.,40.86145757,-96.67789877,https://www.hy-vee.com/stores/detail.aspx?s=92&utm_source=google&utm_medium=organic&utm_campaign=gmb-listing,https://firebasestorage.googleapis.com/v0/b/promotion-3abec.appspot.com/o/media%2Fstores%2F_resized%2Fhyveeimage_100x100.png?alt=media,https://firebasestorage.googleapis.com/v0/b/promotion-3abec.appspot.com/o/media%2Fstores%2F_resized%2Fhyveeimage_100x100.png?alt=media,14024774764
hyvee-3,Hyvee - Village Dr,On Village Drive,"6001 Village Dr, Lincoln, NE",68516,Hyvee near S 40th and Old Cheney Rd.,40.7522149,-96.66650436,https://www.hy-vee.com/stores/detail.aspx?s=93&utm_source=google&utm_medium=organic&utm_campaign=gmb-listing,https://firebasestorage.googleapis.com/v0/b/promotion-3abec.appspot.com/o/media%2Fstores%2F_resized%2Fhyveeimage_100x100.png?alt=media,https://firebasestorage.googleapis.com/v0/b/promotion-3abec.appspot.com/o/media%2Fstores%2F_resized%2Fhyveeimage_100x100.png?alt=media,14024212462
hyvee-4,Hyvee - Stacy Lane,On Stacy Lane,"7151 Stacy Ln, Lincoln, NE",68516,Hyvee near S 70th and Pioneers Blvd.,40.76792746,-96.62295382,https://www.hy-vee.com/stores/detail.aspx?s=95&utm_source=google&utm_medium=organic&utm_campaign=gmb-listing,https://firebasestorage.googleapis.com/v0/b/promotion-3abec.appspot.com/o/media%2Fstores%2F_resized%2Fhyveeimage_100x100.png?alt=media,https://firebasestorage.googleapis.com/v0/b/promotion-3abec.appspot.com/o/media%2Fstores%2F_resized%2Fhyveeimage_100x100.png?alt=media,14024894244
hyvee-5,Hyvee - N 84th St,On N 84th Street,"1601 N 84th St, Lincoln, NE",68505,Hyvee on N 84th Street and Holdrege.,40.82933025,-96.60813044,https://www.hy-vee.com/stores/detail.aspx?s=91&utm_source=google&utm_medium=organic&utm_campaign=gmb-listing,https://firebasestorage.googleapis.com/v0/b/promotion-3abec.appspot.com/o/media%2Fstores%2F_resized%2Fhyveeimage_100x100.png?alt=media,https://firebasestorage.googleapis.com/v0/b/promotion-3abec.appspot.com/o/media%2Fstores%2F_resized%2Fhyveeimage_100x100.png?alt=media,14024675505